CTC1_L_00249001-01
1 40411U 25399FK  26070.40834491  .00000000  00000+0  00000-0 0  9995
2 40411  65.0000   0.0000 0000000   0.0000   0.0000 15.48880433    18
CTC1_L_00249001-02
1 40412U 25820JJ  26070.40834491  .00000000  00000+0  00000-0 0  9995
2 40412  65.0000   0.0000 0000000   0.0000  90.0000 15.48880433    18
CTC1_L_00249001-03
1 40413U 24672SC  26070.40834491  .00000000  00000+0  00000-0 0  9990
2 40413  65.0000   0.0000 0000000   0.0000 180.0000 15.48880433    19
CTC1_L_00249001-04
1 40414U 24070EI  26070.40834491  .00000000  00000+0  00000-0 0  9993
2 40414  65.0000   0.0000 0000000   0.0000 270.0000 15.48880433    10
CTC1_L_00249002-01
1 40415U 26853HW  26070.40834491  .00000000  00000+0  00000-0 0  9995
2 40415  65.0000  12.0000 0000000   0.0000  12.0000 15.48880433    18
CTC1_L_00249002-02
1 40416U 24944UZ  26070.40834491  .00000000  00000+0  00000-0 0  9995
2 40416  65.0000  12.0000 0000000   0.0000 102.0000 15.48880433    19
CTC1_L_00249002-03
1 40417U 25007PH  26070.40834491  .00000000  00000+0  00000-0 0  9997
2 40417  65.0000  12.0000 0000000   0.0000 192.0000 15.48880433    19
CTC1_L_00249002-04
1 40418U 24718I   26070.40834491  .00000000  00000+0  00000-0 0  9996
2 40418  65.0000  12.0000 0000000   0.0000 282.0000 15.48880433    10
CTC1_L_00249003-01
1 40419U 23572QR  26070.40834491  .00000000  00000+0  00000-0 0  9994
2 40419  65.0000  24.0000 0000000   0.0000  24.0000 15.48880433    18
CTC1_L_00249003-02
1 40420U 24830JN  26070.40834491  .00000000  00000+0  00000-0 0  9994
2 40420  65.0000  24.0000 0000000   0.0000 114.0000 15.48880433    10
CTC1_L_00249003-03
1 40421U 25069CY  26070.40834491  .00000000  00000+0  00000-0 0  9990
2 40421  65.0000  24.0000 0000000   0.0000 204.0000 15.48880433    11
CTC1_L_00249003-04
1 40422U 22836FQ  26070.40834491  .00000000  00000+0  00000-0 0  9990
2 40422  65.0000  24.0000 0000000   0.0000 294.0000 15.48880433    11
CTC1_L_00249004-01
1 40423U 25350OI  26070.40834491  .00000000  00000+0  00000-0 0  9995
2 40423  65.0000  36.0000 0000000   0.0000  36.0000 15.48880433    19
CTC1_L_00249004-02
1 40424U 22151GC  26070.40834491  .00000000  00000+0  00000-0 0  9992
2 40424  65.0000  36.0000 0000000   0.0000 126.0000 15.48880433    10
CTC1_L_00249004-03
1 40425U 25150EK  26070.40834491  .00000000  00000+0  00000-0 0  9995
2 40425  65.0000  36.0000 0000000   0.0000 216.0000 15.48880433    11
CTC1_L_00249004-04
1 40426U 25468IZ  26070.40834491  .00000000  00000+0  00000-0 0  9998
2 40426  65.0000  36.0000 0000000   0.0000 306.0000 15.48880433    12
CTC1_L_00249005-01
1 40427U 22457BQ  26070.40834491  .00000000  00000+0  00000-0 0  9994
2 40427  65.0000  48.0000 0000000   0.0000  48.0000 15.48880433    19
CTC1_L_00249005-02
1 40428U 22603CL  26070.40834491  .00000000  00000+0  00000-0 0  9998
2 40428  65.0000  48.0000 0000000   0.0000 138.0000 15.48880433    10
CTC1_L_00249005-03
1 40429U 26200BT  26070.40834491  .00000000  00000+0  00000-0 0  9996
2 40429  65.0000  48.0000 0000000   0.0000 228.0000 15.48880433    11
CTC1_L_00249005-04
1 40430U 23769ZK  26070.40834491  .00000000  00000+0  00000-0 0  9995
2 40430  65.0000  48.0000 0000000   0.0000 318.0000 15.48880433    13
CTC1_L_00249006-01
1 40431U 26109HA  26070.40834491  .00000000  00000+0  00000-0 0  9997
2 40431  65.0000  60.0000 0000000   0.0000  60.0000 15.48880433    12
CTC1_L_00249006-02
1 40432U 22911LJ  26070.40834491  .00000000  00000+0  00000-0 0  9995
2 40432  65.0000  60.0000 0000000   0.0000 150.0000 15.48880433    13
CTC1_L_00249006-03
1 40433U 24203GG  26070.40834491  .00000000  00000+0  00000-0 0  9992
2 40433  65.0000  60.0000 0000000   0.0000 240.0000 15.48880433    14
CTC1_L_00249006-04
1 40434U 25158RT  26070.40834491  .00000000  00000+0  00000-0 0  9993
2 40434  65.0000  60.0000 0000000   0.0000 330.0000 15.48880433    15
CTC1_L_00249007-01
1 40435U 24039UJ  26070.40834491  .00000000  00000+0  00000-0 0  9991
2 40435  65.0000  72.0000 0000000   0.0000  72.0000 15.48880433    12
CTC1_L_00249007-02
1 40436U 26932BV  26070.40834491  .00000000  00000+0  00000-0 0  9996
2 40436  65.0000  72.0000 0000000   0.0000 162.0000 15.48880433    13
CTC1_L_00249007-03
1 40437U 25686GY  26070.40834491  .00000000  00000+0  00000-0 0  9992
2 40437  65.0000  72.0000 0000000   0.0000 252.0000 15.48880433    14
CTC1_L_00249007-04
1 40438U 25883JQ  26070.40834491  .00000000  00000+0  00000-0 0  9992
2 40438  65.0000  72.0000 0000000   0.0000 342.0000 15.48880433    15
CTC1_L_00249008-01
1 40439U 22320HW  26070.40834491  .00000000  00000+0  00000-0 0  9996
2 40439  65.0000  84.0000 0000000   0.0000  84.0000 15.48880433    12
CTC1_L_00249008-02
1 40440U 25117DU  26070.40834491  .00000000  00000+0  00000-0 0  9995
2 40440  65.0000  84.0000 0000000   0.0000 174.0000 15.48880433    14
CTC1_L_00249008-03
1 40441U 24994YN  26070.40834491  .00000000  00000+0  00000-0 0  9998
2 40441  65.0000  84.0000 0000000   0.0000 264.0000 15.48880433    15
CTC1_L_00249008-04
1 40442U 24110KD  26070.40834491  .00000000  00000+0  00000-0 0  9999
2 40442  65.0000  84.0000 0000000   0.0000 354.0000 15.48880433    16
CTC1_L_00249009-01
1 40443U 22619MZ  26070.40834491  .00000000  00000+0  00000-0 0  9992
2 40443  65.0000  96.0000 0000000   0.0000  96.0000 15.48880433    13
CTC1_L_00249009-02
1 40444U 25065UD  26070.40834491  .00000000  00000+0  00000-0 0  9991
2 40444  65.0000  96.0000 0000000   0.0000 186.0000 15.48880433    14
CTC1_L_00249009-03
1 40445U 26033IR  26070.40834491  .00000000  00000+0  00000-0 0  9998
2 40445  65.0000  96.0000 0000000   0.0000 276.0000 15.48880433    15
CTC1_L_00249009-04
1 40446U 26322IO  26070.40834491  .00000000  00000+0  00000-0 0  9990
2 40446  65.0000  96.0000 0000000   0.0000   6.0000 15.48880433    17
CTC1_L_00249010-01
1 40447U 23898TQ  26070.40834491  .00000000  00000+0  00000-0 0  9996
2 40447  65.0000 108.0000 0000000   0.0000 108.0000 15.48880433    15
CTC1_L_00249010-02
1 40448U 23579SX  26070.40834491  .00000000  00000+0  00000-0 0  9993
2 40448  65.0000 108.0000 0000000   0.0000 198.0000 15.48880433    15
CTC1_L_00249010-03
1 40449U 26997KP  26070.40834491  .00000000  00000+0  00000-0 0  9991
2 40449  65.0000 108.0000 0000000   0.0000 288.0000 15.48880433    16
CTC1_L_00249010-04
1 40450U 25510ZP  26070.40834491  .00000000  00000+0  00000-0 0  9993
2 40450  65.0000 108.0000 0000000   0.0000  18.0000 15.48880433    19
CTC1_L_00249011-01
1 40451U 23275KN  26070.40834491  .00000000  00000+0  00000-0 0  9990
2 40451  65.0000 120.0000 0000000   0.0000 120.0000 15.48880433    18
CTC1_L_00249011-02
1 40452U 25893VA  26070.40834491  .00000000  00000+0  00000-0 0  9999
2 40452  65.0000 120.0000 0000000   0.0000 210.0000 15.48880433    19
CTC1_L_00249011-03
1 40453U 25008HG  26070.40834491  .00000000  00000+0  00000-0 0  9998
2 40453  65.0000 120.0000 0000000   0.0000 300.0000 15.48880433    10
CTC1_L_00249011-04
1 40454U 23465BV  26070.40834491  .00000000  00000+0  00000-0 0  9994
2 40454  65.0000 120.0000 0000000   0.0000  30.0000 15.48880433    11
CTC1_L_00249012-01
1 40455U 24339YX  26070.40834491  .00000000  00000+0  00000-0 0  9996
2 40455  65.0000 132.0000 0000000   0.0000 132.0000 15.48880433    18
CTC1_L_00249012-02
1 40456U 24269OH  26070.40834491  .00000000  00000+0  00000-0 0  9999
2 40456  65.0000 132.0000 0000000   0.0000 222.0000 15.48880433    19
CTC1_L_00249012-03
1 40457U 26759QA  26070.40834491  .00000000  00000+0  00000-0 0  9996
2 40457  65.0000 132.0000 0000000   0.0000 312.0000 15.48880433    10
CTC1_L_00249012-04
1 40458U 25345VV  26070.40834491  .00000000  00000+0  00000-0 0  9997
2 40458  65.0000 132.0000 0000000   0.0000  42.0000 15.48880433    11
CTC1_L_00249013-01
1 40459U 22524HV  26070.40834491  .00000000  00000+0  00000-0 0  9994
2 40459  65.0000 144.0000 0000000   0.0000 144.0000 15.48880433    18
CTC1_L_00249013-02
1 40460U 25160HZ  26070.40834491  .00000000  00000+0  00000-0 0  9995
2 40460  65.0000 144.0000 0000000   0.0000 234.0000 15.48880433    10
CTC1_L_00249013-03
1 40461U 25406LU  26070.40834491  .00000000  00000+0  00000-0 0  9999
2 40461  65.0000 144.0000 0000000   0.0000 324.0000 15.48880433    11
CTC1_L_00249013-04
1 40462U 25469EM  26070.40834491  .00000000  00000+0  00000-0 0  9999
2 40462  65.0000 144.0000 0000000   0.0000  54.0000 15.48880433    12
CTC1_L_00249014-01
1 40463U 24670SG  26070.40834491  .00000000  00000+0  00000-0 0  9993
2 40463  65.0000 156.0000 0000000   0.0000 156.0000 15.48880433    19
CTC1_L_00249014-02
1 40464U 26194IW  26070.40834491  .00000000  00000+0  00000-0 0  9997
2 40464  65.0000 156.0000 0000000   0.0000 246.0000 15.48880433    10
CTC1_L_00249014-03
1 40465U 23199RW  26070.40834491  .00000000  00000+0  00000-0 0  9990
2 40465  65.0000 156.0000 0000000   0.0000 336.0000 15.48880433    11
CTC1_L_00249014-04
1 40466U 22437WH  26070.40834491  .00000000  00000+0  00000-0 0  9995
2 40466  65.0000 156.0000 0000000   0.0000  66.0000 15.48880433    12
CTC1_L_00249015-01
1 40467U 26516DL  26070.40834491  .00000000  00000+0  00000-0 0  9998
2 40467  65.0000 168.0000 0000000   0.0000 168.0000 15.48880433    19
CTC1_L_00249015-02
1 40468U 22996NR  26070.40834491  .00000000  00000+0  00000-0 0  9997
2 40468  65.0000 168.0000 0000000   0.0000 258.0000 15.48880433    10
CTC1_L_00249015-03
1 40469U 22985IK  26070.40834491  .00000000  00000+0  00000-0 0  9996
2 40469  65.0000 168.0000 0000000   0.0000 348.0000 15.48880433    11
CTC1_L_00249015-04
1 40470U 24494WM  26070.40834491  .00000000  00000+0  00000-0 0  9995
2 40470  65.0000 168.0000 0000000   0.0000  78.0000 15.48880433    13
CTC1_L_00249016-01
1 40471U 23714ES  26070.40834491  .00000000  00000+0  00000-0 0  9990
2 40471  65.0000 180.0000 0000000   0.0000 180.0000 15.48880433    12
CTC1_L_00249016-02
1 40472U 26633BT  26070.40834491  .00000000  00000+0  00000-0 0  9994
2 40472  65.0000 180.0000 0000000   0.0000 270.0000 15.48880433    13
